STARLINK-36556          
1 67642U 26020AB  26178.89016571  .00014935  00000+0  55114-3 0  9996
2 67642  43.0033 237.7410 0001983 263.6070  96.4556 15.27581388 22961
STARLINK-36533          
1 67643U 26020AC  26178.85418853  .00015399  00000+0  56794-3 0  9992
2 67643  42.9988 237.4749 0001518 273.1993  86.8685 15.27580504 22960
STARLINK-36623          
1 67644U 26020AD  26178.45158754  .00022463  00000+0  82300-3 0  9992
2 67644  42.9991 239.6061 0000833 263.6530  96.4227 15.27592695 22903
STARLINK-36619          
1 67645U 26020AE  26178.45030412  .00021464  00000+0  78689-3 0  9998
2 67645  42.9984 239.5956 0001234 284.9990  75.0725 15.27593851 22901
STARLINK-36719          
1 67648U 26022A   26178.80798187  .00011205  00000+0  34878-3 0  9996
2 67648  97.2836 211.5116 0001229 116.2898 243.8471 15.33454702 22449
STARLINK-36342          
1 67649U 26022B   26178.80674212  .00017825  00000+0  55313-3 0  9990
2 67649  97.2835 212.5795 0000817 101.8180 258.3155 15.33445840 22510
STARLINK-36703          
1 67650U 26022C   26178.84061148  .00018982  00000+0  58869-3 0  9998
2 67650  97.2836 211.6192 0001099  93.3917 266.7451 15.33451365 22454
STARLINK-36696          
1 67651U 26022D   26178.66116101  .00022391  00000+0  69382-3 0  9990
2 67651  97.2844 211.4047 0001394 100.7948 259.3452 15.33445971 22428
STARLINK-36699          
1 67652U 26022E   26178.82428635  .00006656  00000+0  20847-3 0  9996
2 67652  97.2848 211.6426 0001800  96.5008 263.6440 15.33420144 22450
STARLINK-36694          
1 67653U 26022F   26178.66931465  .00017926  00000+0  55625-3 0  9993
2 67653  97.2838 211.3937 0000606 118.2739 241.8565 15.33446811 22422
STARLINK-36620          
1 67654U 26022G   26178.84876845  .00024487  00000+0  75822-3 0  9995
2 67654  97.2834 211.6086 0000967  88.2982 271.8371 15.33451200 22452
STARLINK-36720          
1 67655U 26022H   26178.63670728  .00030890  00000+0  95501-3 0  9996
2 67655  97.2842 211.4385 0001505  88.0375 272.1041 15.33452061 22426
STARLINK-36688          
1 67656U 26022J   26178.81614192  .00024188  00000+0  74910-3 0  9994
2 67656  97.2848 211.6540 0001419 106.7103 253.4295 15.33446692 22458
STARLINK-36706          
1 67657U 26022K   26178.66387709  .00020348  00000+0  63093-3 0  9993
2 67657  97.2827 211.4013 0000407  83.0724 277.0565 15.33444994 22423
STARLINK-36701          
1 67658U 26022L   26178.65572036  .00018308  00000+0  56802-3 0  9995
2 67658  97.2829 211.4114 0000435 106.9292 253.1999 15.33446772 22426
STARLINK-36642          
1 67659U 26022M   26178.84333011  .00017475  00000+0  54223-3 0  9994
2 67659  97.2833 211.6160 0000887  87.8585 272.2760 15.33452110 22452
STARLINK-36673          
1 67660U 26022N   26178.83517191  .00024813  00000+0  76820-3 0  9999
2 67660  97.2837 211.6276 0000996 100.3202 259.8153 15.33452400 22453
STARLINK-36674          
1 67661U 26022P   26178.82701854  .00022669  00000+0  70232-3 0  9998
2 67661  97.2845 211.6394 0001509  89.8105 270.3311 15.33448414 22452
STARLINK-36700          
1 67662U 26022Q   26178.81070303  .00028099  00000+0  86931-3 0  9992
2 67662  97.2850 211.6619 0001373 101.1162 259.0235 15.33450086 22456
STARLINK-36675          
1 67663U 26022R   26178.81886071  .00024978  00000+0  77334-3 0  9999
2 67663  97.2849 211.6511 0001204  94.7695 265.3685 15.33450082 22452
STARLINK-36404          
1 67664U 26022S   26178.80527718  .00016877  00000+0  52421-3 0  9998
2 67664  97.2828 211.5144 0002458  85.1688 274.9836 15.33425343 22444
STARLINK-36399          
1 67665U 26022T   26178.67203409  .00014986  00000+0  46557-3 0  9994
2 67665  97.2835 211.3918 0000868  99.1202 261.0139 15.33446963 22422
STARLINK-36365          
1 67666U 26022U   26178.66659122  .00008187  00000+0  25560-3 0  9998
2 67666  97.2833 211.3999 0000974  71.2751 288.8597 15.33450005 22425
STARLINK-36622          
1 67667U 26022V   26178.65844068  .00012721  00000+0  39572-3 0  9990
2 67667  97.2840 211.4090 0000828 103.4712 256.6623 15.33441987 22422
STARLINK-36625          
1 67668U 26022W   26178.84605086  .00023164  00000+0  71752-3 0  9996
2 67668  97.2839 211.6145 0000839  99.0818 261.0520 15.33449942 22451
STARLINK-36639          
1 67669U 26022X   26178.83789248  .00019697  00000+0  61078-3 0  9995
2 67669  97.2835 211.6269 0001590  87.9074 272.2351 15.33448209 22451
STARLINK-36596          
1 67670U 26022Y   26178.82973837  .00025621  00000+0  79316-3 0  9993
2 67670  97.2844 211.6358 0001607  88.5544 271.5883 15.33448413 22459
STARLINK-36297          
1 67671U 26022Z   26178.81342168  .00023288  00000+0  72138-3 0  9992
2 67671  97.2843 211.6581 0001217  86.6360 273.5022 15.33447901 22457
STARLINK-36616          
1 67672U 26022AA  26178.82158048  .00016382  00000+0  50865-3 0  9996
2 67672  97.2846 211.6472 0001371  88.3090 271.8310 15.33445061 22456
STARLINK-36748          
1 67693U 26025A   26178.89032305  .00042775  00000+0  13184-2 0  9993
2 67693  97.2872 290.0602 0001642 105.9406 254.2018 15.33478434 22902
