OBJECT_NAME,OBJECT_ID,EPOCH,MEAN_MOTION,ECCENTRICITY,INCLINATION,RA_OF_ASC_NODE,ARG_OF_PERICENTER,MEAN_ANOMALY,EPHEMERIS_TYPE,CLASSIFICATION_TYPE,NORAD_CAT_ID,ELEMENT_SET_NO,REV_AT_EPOCH,BSTAR,MEAN_MOTION_DOT,MEAN_MOTION_DDOT
STARLINK-36556,2026-020AB,2026-06-27T21:21:50.317344,15.27581388,.00019839,43.0033,237.7410,263.6070,96.4556,0,U,67642,999,2296,.55113753E-3,.14935E-3,0
STARLINK-36533,2026-020AC,2026-06-27T20:30:01.888992,15.27580504,.0001518,42.9988,237.4749,273.1993,86.8685,0,U,67643,999,2296,.56793937E-3,.15399E-3,0
STARLINK-36623,2026-020AD,2026-06-27T10:50:17.163456,15.27592695,.00008333,42.9991,239.6061,263.6530,96.4227,0,U,67644,999,2290,.82300199E-3,.22463E-3,0
STARLINK-36619,2026-020AE,2026-06-27T10:48:26.275968,15.27593851,.00012345,42.9984,239.5956,284.9990,75.0725,0,U,67645,999,2290,.786889E-3,.21464E-3,0
STARLINK-36719,2026-022A,2026-06-27T19:23:29.633568,15.33454702,.00012292,97.2836,211.5116,116.2898,243.8471,0,U,67648,999,2244,.34878457E-3,.11205E-3,0
STARLINK-36342,2026-022B,2026-06-27T19:21:42.519168,15.33445840,.00008171,97.2835,212.5795,101.8180,258.3155,0,U,67649,999,2251,.55313207E-3,.17825E-3,0
STARLINK-36703,2026-022C,2026-06-27T20:10:28.831872,15.33451365,.00010992,97.2836,211.6192,93.3917,266.7451,0,U,67650,999,2245,.58869451E-3,.18982E-3,0
STARLINK-36696,2026-022D,2026-06-27T15:52:04.311264,15.33445971,.00013945,97.2844,211.4047,100.7948,259.3452,0,U,67651,999,2242,.69381662E-3,.22391E-3,0
STARLINK-36699,2026-022E,2026-06-27T19:46:58.340640,15.33420144,.00018008,97.2848,211.6426,96.5008,263.6440,0,U,67652,999,2245,.208466E-3,.6656E-4,0
STARLINK-36694,2026-022F,2026-06-27T16:03:48.785760,15.33446811,.00006064,97.2838,211.3937,118.2739,241.8565,0,U,67653,999,2242,.55625159E-3,.17926E-3,0
STARLINK-36620,2026-022G,2026-06-27T20:22:13.594080,15.33451200,.00009679,97.2834,211.6086,88.2982,271.8371,0,U,67654,999,2245,.75821761E-3,.24487E-3,0
STARLINK-36720,2026-022H,2026-06-27T15:16:51.508992,15.33452061,.00015058,97.2842,211.4385,88.0375,272.1041,0,U,67655,999,2242,.95501351E-3,.3089E-3,0
STARLINK-36688,2026-022J,2026-06-27T19:35:14.661888,15.33446692,.00014191,97.2848,211.6540,106.7103,253.4295,0,U,67656,999,2245,.74910084E-3,.24188E-3,0
STARLINK-36706,2026-022K,2026-06-27T15:55:58.980576,15.33444994,.00004076,97.2827,211.4013,83.0724,277.0565,0,U,67657,999,2242,.63092726E-3,.20348E-3,0
STARLINK-36701,2026-022L,2026-06-27T15:44:14.239104,15.33446772,.00004358,97.2829,211.4114,106.9292,253.1999,0,U,67658,999,2242,.56801559E-3,.18308E-3,0
STARLINK-36642,2026-022M,2026-06-27T20:14:23.721504,15.33452110,.00008879,97.2833,211.6160,87.8585,272.2760,0,U,67659,999,2245,.54223432E-3,.17475E-3,0
STARLINK-36673,2026-022N,2026-06-27T20:02:38.853024,15.33452400,.00009965,97.2837,211.6276,100.3202,259.8153,0,U,67660,999,2245,.76820464E-3,.24813E-3,0
STARLINK-36674,2026-022P,2026-06-27T19:50:54.401856,15.33448414,.00015094,97.2845,211.6394,89.8105,270.3311,0,U,67661,999,2245,.70232137E-3,.22669E-3,0
STARLINK-36700,2026-022Q,2026-06-27T19:27:24.741792,15.33450086,.00013734,97.2850,211.6619,101.1162,259.0235,0,U,67662,999,2245,.86931138E-3,.28099E-3,0
STARLINK-36675,2026-022R,2026-06-27T19:39:09.565344,15.33450082,.00012045,97.2849,211.6511,94.7695,265.3685,0,U,67663,999,2245,.77334377E-3,.24978E-3,0
STARLINK-36404,2026-022S,2026-06-27T19:19:35.948352,15.33425343,.0002458,97.2828,211.5144,85.1688,274.9836,0,U,67664,999,2244,.52420661E-3,.16877E-3,0
STARLINK-36399,2026-022T,2026-06-27T16:07:43.745376,15.33446963,.00008685,97.2835,211.3918,99.1202,261.0139,0,U,67665,999,2242,.4655718E-3,.14986E-3,0
STARLINK-36365,2026-022U,2026-06-27T15:59:53.481408,15.33450005,.00009742,97.2833,211.3999,71.2751,288.8597,0,U,67666,999,2242,.25559589E-3,.8187E-4,0
STARLINK-36622,2026-022V,2026-06-27T15:48:09.274752,15.33441987,.00008284,97.2840,211.4090,103.4712,256.6623,0,U,67667,999,2242,.39572317E-3,.12721E-3,0
STARLINK-36625,2026-022W,2026-06-27T20:18:18.794304,15.33449942,.00008396,97.2839,211.6145,99.0818,261.0520,0,U,67668,999,2245,.71751568E-3,.23164E-3,0
STARLINK-36639,2026-022X,2026-06-27T20:06:33.910272,15.33448209,.00015901,97.2835,211.6269,87.9074,272.2351,0,U,67669,999,2245,.61077683E-3,.19697E-3,0
STARLINK-36596,2026-022Y,2026-06-27T19:54:49.395168,15.33448413,.0001607,97.2844,211.6358,88.5544,271.5883,0,U,67670,999,2245,.79315922E-3,.25621E-3,0
STARLINK-36297,2026-022Z,2026-06-27T19:31:19.633152,15.33447901,.00012175,97.2843,211.6581,86.6360,273.5022,0,U,67671,999,2245,.72137612E-3,.23288E-3,0
STARLINK-36616,2026-022AA,2026-06-27T19:43:04.553472,15.33445061,.00013712,97.2846,211.6472,88.3090,271.8310,0,U,67672,999,2245,.50865171E-3,.16382E-3,0
STARLINK-36748,2026-025A,2026-06-27T21:22:03.911520,15.33478434,.00016429,97.2872,290.0602,105.9406,254.2018,0,U,67693,999,2290,.13183955E-2,.42775E-3,0
